STARLINK-36766          
1 68069U 26042A   26086.77700262  .00429925  00000+0  20635-2 0  9994
2 68069  53.1581 104.1319 0002297  80.6616 279.4666 15.80995813  4946
STARLINK-36823          
1 68070U 26042B   26086.77624582  .00427086  00000+0  20492-2 0  9993
2 68070  53.1577 104.1265 0000817  82.2114 277.9001 15.81008648  4948
STARLINK-36970          
1 68071U 26042C   26086.83335647  .00098177  00000+0  63863-3 0  9997
2 68071  53.1599 103.9322 0001189 109.4658 170.0685 15.75187898  4963
STARLINK-36972          
1 68072U 26042D   26086.77550140  .00493140  00000+0  23442-2 0  9995
2 68072  53.1573 104.1217 0001843  72.5727 287.5497 15.81039440  4945
STARLINK-37074          
1 68073U 26042E   26086.83335647 -.01800522  00000+0 -12423-1 0  9991
2 68073  53.1592 103.8254 0000929 100.9729 230.6524 15.76924339  4962
STARLINK-37045          
1 68074U 26042F   26086.48050108  .00073136  00000+0  47577-3 0  9999
2 68074  53.1596 105.8489 0002770  39.0243 321.0976 15.75302623  4891
STARLINK-37026          
1 68075U 26042G   26086.74369004  .00355125  00000+0  22171-2 0  9990
2 68075  53.1569 104.6453 0002411  77.6660 282.4630 15.75319622  4932
STARLINK-37023          
1 68076U 26042H   26086.54815215  .00295703  00000+0  18650-2 0  9991
2 68076  53.1576 105.5565 0001570 133.5167 226.5984 15.75258096  4909
STARLINK-37036          
1 68077U 26042J   26086.48503587  .00109654  00000+0  70954-3 0  9996
2 68077  53.1575 105.8738 0001116  70.7523 289.3618 15.75262011  4899
STARLINK-36973          
1 68078U 26042K   26086.83335647  .00033025  00000+0  21900-3 0  9991
2 68078  53.1594 103.8256 0001195 102.4462 228.5894 15.75214464  4964
STARLINK-37063          
1 68079U 26042L   26086.77024582  .00421951  00000+0  20282-2 0  9998
2 68079  53.1571 104.0858 0001439  68.1410 291.9765 15.80984808  4944
STARLINK-37051          
1 68080U 26042M   26086.83335647  .00065893  00000+0  43140-3 0  9992
2 68080  53.1596 103.8785 0001133 110.0570 195.2309 15.75200229  4968
STARLINK-37066          
1 68081U 26042N   26086.66668981 -.00073743  00000+0 -48039-3 0  9991
2 68081  53.1592 104.8635 0001108  82.8853 281.3066 15.75271720  4941
STARLINK-37054          
1 68082U 26042P   26086.45114424  .00211021  00000+0  10446-2 0  9998
2 68082  53.1572 105.6499 0001857 110.0482 250.0740 15.80917816  4895
STARLINK-37065          
1 68083U 26042Q   26086.48016872  .00365638  00000+0  22573-2 0  9998
2 68083  53.1585 105.8417 0001294 183.6169 176.4842 15.75546988  4891
STARLINK-37037          
1 68084U 26042R   26086.83335647  .00097507  00000+0  63434-3 0  9991
2 68084  53.1594 103.8753 0001218 101.2897 205.8679 15.75188435  4965
STARLINK-37068          
1 68085U 26042S   26086.83335647 -.01533108  00000+0 -10785-1 0  9996
2 68085  53.1591 103.7213 0000942  96.8006 284.9349 15.76496617  4964
